{"fetched_at":"2026-03-29T16:36:15Z","count":15609,"tles":[{"name":"STARLINK-35963","line1":"1 66585U 25268AE  26087.44255308  .00039703  00000+0  14433-2 0  9995","line2":"2 66585  42.9966 241.5107 0001570 278.2489  81.8185 15.27607509 20826","category":"Starlink"}]}